{
    "links": {
        "self": "http://www.neowsapp.com/rest/v1/neo/3766066?api_key=iIulBulltgU6a56xZRHN4H3l9WmuAYTsLGpBGhQ2"
    },
    "id": "3766066",
    "neo_reference_id": "3766066",
    "name": "(2016 YO)",
    "designation": "2016 YO",
    "nasa_jpl_url": "http://ssd.jpl.nasa.gov/sbdb.cgi?sstr=3766066",
    "absolute_magnitude_h": 24.7,
    "estimated_diameter": {
        "kilometers": {
            "estimated_diameter_min": 0.0305179233,
            "estimated_diameter_max": 0.0682401509
        },
        "meters": {
            "estimated_diameter_min": 30.5179232594,
            "estimated_diameter_max": 68.2401509401
        },
        "miles": {
            "estimated_diameter_min": 0.0189629525,
            "estimated_diameter_max": 0.0424024508
        },
        "feet": {
            "estimated_diameter_min": 100.1244233463,
            "estimated_diameter_max": 223.8850168104
        }
    },
    "is_potentially_hazardous_asteroid": false,
    "close_approach_data": [
        {
            "close_approach_date": "2016-12-13",
            "close_approach_date_full": "2016-Dec-13 06:28",
            "epoch_date_close_approach": 1481610480000,
            "relative_velocity": {
                "kilometers_per_second": "9.4381048379",
                "kilometers_per_hour": "33977.177416608",
                "miles_per_hour": "21112.0967120029"
            },
            "miss_distance": {
                "astronomical": "0.0607743856",
                "lunar": "23.6412359984",
                "kilometers": "9091718.636318672",
                "miles": "5649331.9976027936"
            },
            "orbiting_body": "Earth"
        }
    ],
    "orbital_data": {
        "orbit_id": "8",
        "orbit_determination_date": "2017-04-06 08:21:26",
        "first_observation_date": "2016-12-18",
        "last_observation_date": "2017-01-08",
        "data_arc_in_days": 21,
        "observations_used": 50,
        "orbit_uncertainty": "7",
        "minimum_orbit_intersection": ".0111469",
        "jupiter_tisserand_invariant": "3.366",
        "epoch_osculation": "2459000.5",
        "eccentricity": ".5666738538999979",
        "semi_major_axis": "2.288114806032693",
        "inclination": "1.795763866275223",
        "ascending_node_longitude": "78.19352938768149",
        "orbital_period": "1264.198130986923",
        "perihelion_distance": ".9914999707325008",
        "perihelion_argument": "336.9270451205868",
        "aphelion_distance": "3.584729641332886",
        "perihelion_time": "2458985.003392206298",
        "mean_anomaly": "4.412899108921737",
        "mean_motion": ".2847654898199844",
        "equinox": "J2000",
        "orbit_class": {
            "orbit_class_type": "APO",
            "orbit_class_description": "Near-Earth asteroid orbits which cross the Earth’s orbit similar to that of 1862 Apollo",
            "orbit_class_range": "a (semi-major axis) > 1.0 AU; q (perihelion) < 1.017 AU"
        }
    },
    "is_sentry_object": false
}